STARLINK-11429 [DTC]    
1 62061U 24217E   25306.35832197  .00259282  00000+0  20754-2 0  9992
2 62061  53.1572 339.0327 0001357  99.4201 260.6971 15.69749954 55176
STARLINK-11470 [DTC]    
1 62062U 24217F   25306.41708630  .00199486  00000+0  16095-2 0  9996
2 62062  53.1568 338.6845 0001509  63.5631 296.5541 15.69749305 55126
STARLINK-11427 [DTC]    
1 62063U 24217G   25306.49546971  .00160157  00000+0  12979-2 0  9993
2 62063  53.1575 338.4692 0001456  89.0713 271.0471 15.69775388 55195
STARLINK-11456 [DTC]    
1 62064U 24217H   25306.46604146  .00347450  00000+0  27465-2 0  9999
2 62064  53.1567 338.2744 0002070  58.7793 301.3428 15.69779264 55193
STARLINK-11474 [DTC]    
1 62065U 24217J   25306.38765104  .00261383  00000+0  20818-2 0  9998
2 62065  53.1570 338.4913 0001048 114.5807 245.5320 15.69863618 55185
STARLINK-11463 [DTC]    
1 62066U 24217K   25306.47585019  .00240303  00000+0  19270-2 0  9993
2 62066  53.1569 338.3382 0001981  81.5831 278.5411 15.69765437 55197
STARLINK-11472 [DTC]    
1 62067U 24217L   25306.44651597  .00163049  00000+0  13220-2 0  9996
2 62067  53.1559 338.8786 0001463  84.9834 275.1351 15.69753054 55115
STARLINK-11467 [DTC]    
1 62068U 24217M   25306.47094529  .00195257  00000+0  15767-2 0  9990
2 62068  53.1566 338.3056 0001802  62.8292 297.2909 15.69743088 55197
STARLINK-11460 [DTC]    
1 62069U 24217N   25306.44160964  .00226059  00000+0  18097-2 0  9999
2 62069  53.1566 338.8446 0001169 149.6281 210.4805 15.69851717 55128
STARLINK-11384 [DTC]    
1 62088U 24220A   25305.79021332  .00287188  00000+0  21524-2 0  9995
2 62088  42.9986  94.3913 0003735 254.6774 105.3681 15.70978196 54934
STARLINK-11379 [DTC]    
1 62089U 24220B   25306.10282831  .00259449  00000+0  19572-2 0  9994
2 62089  42.9994  92.4324 0000819 304.0899  55.9891 15.70909975 54883
STARLINK-11387 [DTC]    
1 62090U 24220C   25305.71601654  .00271116  00000+0  20365-2 0  9997
2 62090  42.9984  94.6896 0000855 195.8057 164.2785 15.70976038 54929
STARLINK-11389 [DTC]    
1 62091U 24220D   25306.47370420  .00681319  00000+0  49143-2 0  9991
2 62091  42.9993  90.0483 0001201 232.1245 127.9514 15.70721427 54940
STARLINK-11388 [DTC]    
1 62092U 24220E   25305.89614340  .00252178  00000+0  19029-2 0  9996
2 62092  43.0013  93.4551 0003724 274.0182  86.0260 15.70921488 54858
STARLINK-11345 [DTC]    
1 62093U 24220F   25306.46307909  .00259709  00000+0  19534-2 0  9999
2 62093  42.9994  89.9619 0002541 254.5403 105.5184 15.70978419 54943
STARLINK-11381 [DTC]    
1 62094U 24220G   25305.82194003  .00343866  00000+0  25537-2 0  9996
2 62094  42.9994  93.7515 0003872 255.3366 104.7073 15.71025837 54842
STARLINK-11369 [DTC]    
1 62095U 24220H   25306.13455425  .00246425  00000+0  18611-2 0  9998
2 62095  42.9988  91.7939 0000907 300.0920  59.9857 15.70921954 54995
STARLINK-11303 [DTC]    
1 62096U 24220J   25306.12924362  .00284927  00000+0  21419-2 0  9998
2 62096  42.9995  91.7508 0001355 296.6859  63.3870 15.70915821 54995
STARLINK-11367 [DTC]    
1 62097U 24220K   25306.12394437  .00273353  00000+0  20590-2 0  9993
2 62097  42.9985  91.7084 0001481  40.9314 319.1664 15.70903406 54999
STARLINK-11386 [DTC]    
1 62098U 24220L   25306.11862462  .00245525  00000+0  18400-2 0  9998
2 62098  42.9999  91.6650 0002150 300.5597  59.5058 15.71109097 54891
STARLINK-11380 [DTC]    
1 62099U 24220M   25306.43122431  .00237092  00000+0  17952-2 0  9990
2 62099  42.9983  89.7088 0002686 304.4466  55.6148 15.70888802 54940
STARLINK-11394 [DTC]    
1 62218U 24231A   25306.49299730  .00174068  00000+0  14092-2 0  9993
2 62218  53.1574   8.3153 0001567 100.3808 259.7386 15.69751698 53437
STARLINK-11490 [DTC]    
1 62219U 24231B   25306.49789828  .00136710  00000+0  11122-2 0  9999
2 62219  53.1580   8.3468 0003015 147.4789 212.6415 15.69761871 53439
STARLINK-11466 [DTC]    
1 62220U 24231C   25306.50002315 -.00027457  00000+0 -22247-3 0  9992
2 62220  53.1574   8.4506 0001190  80.5878 236.0319 15.69715515  6026
STARLINK-11468 [DTC]    
1 62221U 24231D   25306.45385524  .00207414  00000+0  16681-2 0  9998
2 62221  53.1568   8.7892 0001165  94.5095 265.6056 15.69801062 53424
STARLINK-11488 [DTC]    
1 62222U 24231E   25306.50280828  .00231239  00000+0  18569-2 0  9995
2 62222  53.1570   8.3776 0001393 102.1569 257.9605 15.69761394 53438
STARLINK-11483 [DTC]    
1 62223U 24231F   25306.46846875  .00242476  00000+0  19433-2 0  9997
2 62223  53.1578   8.1505 0000937  69.2414 290.8704 15.69772142 53439
STARLINK-11492 [DTC]    
1 62224U 24231G   25306.44895250  .00236233  00000+0  18967-2 0  9992
2 62224  53.1576   8.7679 0001138  83.0430 277.0717 15.69749120 53422
STARLINK-11471 [DTC]    
1 62225U 24231H   25306.47337575  .00265870  00000+0  21235-2 0  9998
2 62225  53.1582   8.1936 0001441  88.4571 271.6612 15.69781041 53435
STARLINK-11475 [DTC]    
1 62226U 24231J   25306.47828360  .00144214  00000+0  11729-2 0  9991
2 62226  53.1577   8.2141 0002104  55.7115 304.4101 15.69744256 53432
STARLINK-11469 [DTC]    
1 62227U 24231K   25306.48809419  .00181616  00000+0  14685-2 0  9998
2 62227  53.1572   8.2785 0001629  51.6136 308.5028 15.69756641 53435
STARLINK-11476 [DTC]    
1 62228U 24231L   25306.46356432  .00195501  00000+0  15751-2 0  9992
2 62228  53.1558   8.1162 0001423  90.9016 269.2165 15.69796764 53449
STARLINK-11485 [DTC]    
1 62229U 24231M   25306.41951833  .00230500  00000+0  18516-2 0  9995
2 62229  53.1578   8.5579 0002143  33.8586 326.2568 15.69753934 53427
STARLINK-11481 [DTC]    
1 62230U 24231N   25306.45876038  .00192768  00000+0  15560-2 0  9993
2 62230  53.1574   8.8166 0001076  87.4485 272.6656 15.69761622 53422
STARLINK-11496 [DTC]    
1 62267U 24237A   25306.49263641  .00219356  00000+0  16559-2 0  9995
2 62267  42.9981 103.6589 0006047 291.4547  68.5675 15.71001623 53044
STARLINK-11501 [DTC]    
1 62268U 24237B   25305.88853699  .00271824  00000+0  20466-2 0  9996
2 62268  43.0003 106.8518 0002323 287.2603  72.8010 15.70918335 52909
STARLINK-11491 [DTC]    
1 62269U 24237C   25306.13755041  .00225242  00000+0  17034-2 0  9998
2 62269  42.9983 105.2749 0002380 287.3732  72.6876 15.70955677 52998
STARLINK-11479 [DTC]    
1 62270U 24237D   25306.47139661  .00214978  00000+0  16312-2 0  9993
2 62270  42.9987 103.4859 0001586 249.5326 110.5372 15.70908739 53049
STARLINK-11489 [DTC]    
1 62271U 24237E   25305.93632051  .00272281  00000+0  20540-2 0  9994
2 62271  42.9987 107.2349 0001748 279.9441  80.1229 15.70871254 52954
STARLINK-11494 [DTC]    
1 62272U 24237F   25306.48732296  .00266318  00000+0  20058-2 0  9996
2 62272  42.9985 103.6135 0001272 258.4643 101.6082 15.70927729 52993
STARLINK-11333 [DTC]    
1 62273U 24237G   25305.92570263  .00259329  00000+0  19601-2 0  9995
2 62273  42.9985 107.1485 0001310 270.0120  90.0598 15.70863721 52954
STARLINK-11504 [DTC]    
1 62274U 24237H   25306.16410416  .00278652  00000+0  20906-2 0  9996
2 62274  42.9977 105.4858 0001879 276.7135  83.3518 15.70981720 52946
STARLINK-11495 [DTC]    
1 62275U 24237J   25306.45028775  .00315016  00000+0  23473-2 0  9990
2 62275  42.9978 104.2096 0001313 243.1859 116.8874 15.71035199 52985
STARLINK-11498 [DTC]    
1 62276U 24237K   25306.46608648  .00221043  00000+0  16764-2 0  9996
2 62276  42.9990 103.4413 0001847 263.1303  96.9354 15.70901168 53048
STARLINK-11484 [DTC]    
1 62277U 24237L   25305.00003472 -.00061759  00000+0 -48044-3 0  9995
2 62277  42.9997 112.4292 0001785 276.2961   3.0015 15.70885045  6032
STARLINK-11487 [DTC]    
1 62278U 24237M   25306.50325090  .00248464  00000+0  18724-2 0  9994
2 62278  43.0000 103.7392 0002631 256.2429 103.8146 15.70967444 53043
STARLINK-11499 [DTC]    
1 62279U 24237N   25305.81537256  .00226318  00000+0  17067-2 0  9990
2 62279  42.9999 108.0476 0002510 246.0956 113.9648 15.71019788 52866
STARLINK-11444 [DTC]    
1 62409U 24249A   25306.05615379  .00199504  00000+0  15185-2 0  9993
2 62409  43.0013 217.3070 0001423 266.6433  93.4272 15.70883000 49400
STARLINK-11493 [DTC]    
1 62410U 24249B   25306.44295348  .00316047  00000+0  23604-2 0  9996
2 62410  42.9990 215.0495 0002824 274.9679  85.0866 15.70976779 49468
STARLINK-11453 [DTC]    
1 62411U 24249C   25306.47468176  .00433352  00000+0  31822-2 0  9991
2 62411  43.0001 214.4097 0002901 279.2490  80.8049 15.71031067 49470
STARLINK-11462 [DTC]    
1 62412U 24249D   25306.03491638  .00223678  00000+0  16926-2 0  9999
2 62412  43.0013 217.1346 0001258 246.7831 113.2905 15.70946183 49401
STARLINK-11441 [DTC]    
1 62413U 24249E   25306.45875657  .00254608  00000+0  19152-2 0  9994
2 62413  43.0003 214.2806 0001638 277.0192  83.0490 15.70993030 49472
STARLINK-11445 [DTC]    
1 62414U 24249F   25306.08787995  .00221302  00000+0  16683-2 0  9992
2 62414  43.0009 216.6649 0002424 273.7738  86.2852 15.71043596 49418
STARLINK-11355 [DTC]    
1 62415U 24249G   25306.45966639  .00281089  00000+0  21057-2 0  9997
2 62415  43.0014 214.2789 0001648 277.0860  82.9820 15.71010313 49479
STARLINK-11446 [DTC]    
1 62416U 24249H   25306.44813792  .00248109  00000+0  18683-2 0  9995
2 62416  43.0024 214.1937 0001561 281.6080  78.4612 15.70987648 49476
STARLINK-11428 [DTC]    
1 62417U 24249J   25305.79120399  .00195521  00000+0  14816-2 0  9990
2 62417  43.0004 218.7577 0002802 263.9155  96.1393 15.70999259 49362
STARLINK-11447 [DTC]    
1 62418U 24249K   25306.45344796  .00338842  00000+0  25221-2 0  9991
2 62418  43.0005 214.2349 0001660 292.1285  67.9406 15.70990045 49478
STARLINK-11439 [DTC]    
1 62419U 24249L   25306.46406359  .00336683  00000+0  25170-2 0  9991
2 62419  43.0011 214.3212 0001173 280.3763  79.6973 15.70891839 49475
STARLINK-11434 [DTC]    
1 62420U 24249M   25306.05084163  .00225306  00000+0  17079-2 0  9991
2 62420  42.9993 217.2581 0000977 255.8150 104.2610 15.70899875 49407
